{
  "norad_id": 53543,
  "name": "STARLINK-4297",
  "history": [
    {
      "epoch": "2026-03-28T22:05:03.108768Z",
      "apogee_km": 541.1467943093621,
      "perigee_km": 538.3201524339411,
      "latitude_deg": 6.461351793527243e-05,
      "longitude_deg": -179.73970683288948,
      "height_km": 540.5983154686792,
      "semi_major_axis_km": 6917.870473371651,
      "eccentricity": 0.0002043,
      "inclination_deg": 53.2186,
      "raan_deg": 337.8569,
      "arg_perigee_deg": 88.7835,
      "mean_anomaly_deg": 271.3392,
      "mean_motion_rev_day": 15.08843244
    },
    {
      "epoch": "2026-03-28T22:05:03.109632Z",
      "apogee_km": 541.1469326667702,
      "perigee_km": 538.3200140765321,
      "latitude_deg": 6.276718438595533e-05,
      "longitude_deg": -179.7396118154722,
      "height_km": 540.5983125311806,
      "semi_major_axis_km": 6917.870473371651,
      "eccentricity": 0.00020432,
      "inclination_deg": 53.2186,
      "raan_deg": 337.857,
      "arg_perigee_deg": 88.7835,
      "mean_anomaly_deg": 271.3392,
      "mean_motion_rev_day": 15.08843244
    },
    {
      "epoch": "2026-03-30T01:06:37.172448Z",
      "apogee_km": 541.2041921079608,
      "perigee_km": 538.3100219293483,
      "latitude_deg": 1.940433560608191e-05,
      "longitude_deg": 128.7043044149311,
      "height_km": 540.6920831864984,
      "semi_major_axis_km": 6917.894107018655,
      "eccentricity": 0.00020918,
      "inclination_deg": 53.2181,
      "raan_deg": 332.8028,
      "arg_perigee_deg": 91.5939,
      "mean_anomaly_deg": 268.5293,
      "mean_motion_rev_day": 15.08835512
    },
    {
      "epoch": "2026-03-30T15:25:05.390400Z",
      "apogee_km": 541.203932090496,
      "perigee_km": 538.3060271402346,
      "latitude_deg": -6.7351685044464715e-06,
      "longitude_deg": -89.17699117109592,
      "height_km": 540.6871070039908,
      "semi_major_axis_km": 6917.891979615365,
      "eccentricity": 0.00020945,
      "inclination_deg": 53.2183,
      "raan_deg": 330.1267,
      "arg_perigee_deg": 91.4783,
      "mean_anomaly_deg": 268.6449,
      "mean_motion_rev_day": 15.08836208
    },
    {
      "epoch": "2026-03-30T21:46:37.863552Z",
      "apogee_km": 541.222005222312,
      "perigee_km": 538.271527795895,
      "latitude_deg": -1.5932432980226037e-05,
      "longitude_deg": 173.98794181267547,
      "height_km": 540.7201394962261,
      "semi_major_axis_km": 6917.883766509103,
      "eccentricity": 0.00021325,
      "inclination_deg": 53.2194,
      "raan_deg": 328.9381,
      "arg_perigee_deg": 93.0526,
      "mean_anomaly_deg": 267.071,
      "mean_motion_rev_day": 15.08838895
    },
    {
      "epoch": "2026-03-31T21:37:24.989952Z",
      "apogee_km": 541.1580294910727,
      "perigee_km": 538.3562823579223,
      "latitude_deg": -1.5254420060426535e-05,
      "longitude_deg": 170.85094585388404,
      "height_km": 540.6609396076702,
      "semi_major_axis_km": 6917.894155924497,
      "eccentricity": 0.0002025,
      "inclination_deg": 53.2185,
      "raan_deg": 324.4768,
      "arg_perigee_deg": 90.3645,
      "mean_anomaly_deg": 269.7579,
      "mean_motion_rev_day": 15.08835496
    },
    {
      "epoch": "2026-04-01T21:28:12.495648Z",
      "apogee_km": 541.0662092927323,
      "perigee_km": 538.5051943085264,
      "latitude_deg": -1.2492218513126298e-05,
      "longitude_deg": 167.7118665882297,
      "height_km": 540.7212317736272,
      "semi_major_axis_km": 6917.9227018006295,
      "eccentricity": 0.0001851,
      "inclination_deg": 53.2186,
      "raan_deg": 320.015,
      "arg_perigee_deg": 91.8078,
      "mean_anomaly_deg": 268.3126,
      "mean_motion_rev_day": 15.08826157
    },
    {
      "epoch": "2026-04-02T21:18:58.337280Z",
      "apogee_km": 541.0255781819769,
      "perigee_km": 538.407862334232,
      "latitude_deg": 3.354222949297993e-06,
      "longitude_deg": 164.5810491420972,
      "height_km": 540.609480978999,
      "semi_major_axis_km": 6917.853720258105,
      "eccentricity": 0.0001892,
      "inclination_deg": 53.2187,
      "raan_deg": 315.5545,
      "arg_perigee_deg": 89.898,
      "mean_anomaly_deg": 270.2229,
      "mean_motion_rev_day": 15.08848725
    },
    {
      "epoch": "2026-04-03T21:09:45.462816Z",
      "apogee_km": 541.1729063409739,
      "perigee_km": 538.271556179383,
      "latitude_deg": -3.662961693092224e-05,
      "longitude_deg": 161.44552520032997,
      "height_km": 541.089462716035,
      "semi_major_axis_km": 6917.859231260178,
      "eccentricity": 0.0002097,
      "inclination_deg": 53.2171,
      "raan_deg": 311.0947,
      "arg_perigee_deg": 109.0064,
      "mean_anomaly_deg": 251.1155,
      "mean_motion_rev_day": 15.08846922
    },
    {
      "epoch": "2026-04-04T00:20:31.516224Z",
      "apogee_km": 541.0496536754963,
      "perigee_km": 538.3757664055711,
      "latitude_deg": 4.169684633878889e-05,
      "longitude_deg": 113.02811846412575,
      "height_km": 540.9211934621605,
      "semi_major_axis_km": 6917.849710040533,
      "eccentricity": 0.00019326,
      "inclination_deg": 53.2162,
      "raan_deg": 310.4997,
      "arg_perigee_deg": 103.5682,
      "mean_anomaly_deg": 256.5526,
      "mean_motion_rev_day": 15.08850037
    },
    {
      "epoch": "2026-04-05T14:29:49.513056Z",
      "apogee_km": 541.0987919254139,
      "perigee_km": 538.4728867740532,
      "latitude_deg": 3.3497914274094754e-05,
      "longitude_deg": -107.99924658675211,
      "height_km": 540.7060676579883,
      "semi_major_axis_km": 6917.922839349733,
      "eccentricity": 0.00018979,
      "inclination_deg": 53.2181,
      "raan_deg": 303.3643,
      "arg_perigee_deg": 91.1008,
      "mean_anomaly_deg": 269.0202,
      "mean_motion_rev_day": 15.08826112
    },
    {
      "epoch": "2026-04-05T20:51:21.778848Z",
      "apogee_km": 541.3185298627659,
      "perigee_km": 538.2123916578839,
      "latitude_deg": -4.192172540018748e-05,
      "longitude_deg": 155.16530274488667,
      "height_km": 540.7906178933516,
      "semi_major_axis_km": 6917.902460760324,
      "eccentricity": 0.0002245,
      "inclination_deg": 53.2182,
      "raan_deg": 302.1745,
      "arg_perigee_deg": 94.825,
      "mean_anomaly_deg": 265.2998,
      "mean_motion_rev_day": 15.08832779
    }
  ]
}